# From MPEC 2026-E44
C/2019 T2 (Lemmon),e,111.3358,155.6503,239.3628,2615,0.0000074,0.99898951,0.0000,04/22.1616/2021,2000,g  9.0,4.0
# From MPEC 2026-E43
C/2019 T3 (ATLAS),e,121.8896,139.5518,112.4919,6262,0.0000020,0.99904953,0.0000,03/05.0968/2021,2000,g  6.8,4.0
# From MPEC 2026-E44
C/2019 T4 (ATLAS),e,53.6250,199.8728,351.1172,900.6202,0.0000365,0.99529606,0.0000,06/08.7836/2022,2000,g  5.0,4.0
# From MPEC 2026-E44
P/2019 T5 (ATLAS),e,33.4932,247.6159,189.6485,8.010915,0.0434691,0.80957580,104.9942,03/15.0/2026,2000,g 15.0,4.0
# From MPEC 2026-E44
P/2019 T6 (PANSTARRS),e,18.7023,71.2093,329.1105,5.444486,0.0775834,0.62200844,179.8900,03/15.0/2026,2000,g 15.5,4.0
# From MPEC 2026-E44
P/2019 U4 (PANSTARRS),e,11.6985,199.9750,181.1313,3.517793,0.1493822,0.47556942,353.3231,03/15.0/2026,2000,g 19.0,4.0
# From MPEC 2026-E44
C/2019 U5 (PANSTARRS),e,113.5159,2.5921,181.4461,46265,0.0000001,0.99992164,0.0000,03/29.2684/2023,2000,g  4.5,4.0
# From MPEC 2026-E44
C/2019 U6 (Lemmon),e,61.0203,235.6894,329.4150,299.4634,0.0001902,0.99698157,0.0000,06/18.4754/2020,2000,g 10.0,4.0
# From MPEC 2026-E44
C/2019 V1 (Borisov),e,61.9402,83.1551,51.2058,3289,0.0000052,0.99905943,0.0000,07/18.0205/2020,2000,g 11.0,4.0
# From MPEC 2026-E44
P/2019 V2 (Groeller),e,11.8079,189.1115,335.6708,7.495446,0.0480295,0.33217194,94.8060,03/15.0/2026,2000,g 10.0,4.0
# From MPEC 2026-E44
P/2019 W1 (PANSTARRS),e,23.4627,35.3462,18.9308,4.548423,0.1016045,0.26703808,253.8414,03/15.0/2026,2000,g 12.9,4.0
# From MPEC 2026-E44
P/2019 X1 (Pruyne),e,10.2421,43.6539,37.0823,6.181652,0.0641279,0.30354077,155.5079,03/15.0/2026,2000,g 10.4,4.0
# From MPEC 2026-E44
P/2019 X2 (Pan-STARRS),e,15.8983,250.8501,213.5325,3.632999,0.1423332,0.50049419,325.0813,03/15.0/2026,2000,g 18.0,4.0
# From MPEC 2026-E44
C/2019 Y1 (ATLAS),e,73.2676,31.2828,57.4422,250.6706,0.0002483,0.99667987,0.0000,03/17.4450/2020,2000,g 13.7,4.0
# From MPEC 2026-E44
C/2019 Y4 (ATLAS),e,44.8830,120.8131,177.3878,317.7153,0.0001740,0.99919027,0.0000,05/29.0163/2020,2000,g 11.8,6.0
# From MPEC 2026-E44
C/2019 Y4-A,h,05/29.1136/2020,45.5298,121.3530,177.1296,1.002662,0.254491,2000,11.9,6.0
# From MPEC 2026-E44
C/2019 Y4-B,e,44.6937,120.6762,177.4629,116.3258,0.0007856,0.99778072,0.0000,05/28.9923/2020,2000,g 12.1,6.0
# From MPEC 2026-E44
C/2019 Y5 (PANSTARRS),e,82.7912,51.7915,303.6886,675.1684,0.0000562,0.99268638,0.0000,08/16.0590/2019,2000,g 11.0,4.0
# From MPEC 2026-E44
A/2020 A1,e,149.0315,119.0412,302.4229,25.46085,0.0076718,0.93417798,17.6267,03/15.0/2026,2000,g 18.0,2.0
# From MPEC 2026-E44
C/2020 A2 (Iwamoto),e,120.4958,286.1796,68.0298,892.2173,0.0000370,0.99890459,0.0000,01/06.2906/2020,2000,g 13.5,4.0
# From MPEC 2026-E44
C/2020 A3 (ATLAS),e,146.6132,120.7951,268.2165,3195,0.0000055,0.99819924,0.0000,06/25.7646/2019,2000,g  8.0,4.0
# From MPEC 2026-E44
P/2020 A4 (PANSTARRS-Lemmon),e,25.0090,312.2436,144.9798,8.206798,0.0419221,0.65433754,96.5168,03/15.0/2026,2000,g 15.0,4.0
# From MPEC 2026-E44
A/2020 B1,e,18.5512,309.7412,154.9755,52.34104,0.0026028,0.96672954,5.9060,03/15.0/2026,2000,g 21.0,2.0
# From MPEC 2026-E44
C/2020 B2 (Lemmon),e,55.7216,354.1575,143.5310,66.38291,0.0018223,0.95849421,4.0798,03/15.0/2026,2000,g 10.0,4.0
# From MPEC 2026-E44
C/2020 B3 (Rankin),e,20.7070,185.6930,324.9931,1151,0.0000252,0.99711016,0.0000,10/21.3994/2019,2000,g 13.0,4.0
# From MPEC 2026-E44
P/2020 B4 (Sheppard),e,11.6013,185.9286,342.1600,7.977082,0.0437460,0.19323931,68.8978,03/15.0/2026,2000,g 10.5,4.0
# From MPEC 2026-E44
C/2020 F2 (ATLAS),h,07/11.9047/2022,163.5902,250.2933,48.2216,1.001463,8.814240,2000,4.5,4.0
# From MPEC 2026-E44
C/2020 F3 (NEOWISE),e,129.0629,61.0450,37.2868,413.0171,0.0001174,0.99929093,0.0000,07/05.2903/2020,2000,g  7.5,5.2
# From MPEC 2026-E44
C/2020 F5 (MASTER),e,52.2453,350.5699,310.5611,161.7308,0.0004792,0.97326482,0.0000,03/15.8115/2021,2000,g  6.5,3.2
# From MPEC 2026-E44
C/2020 F6 (PANSTARRS),e,174.5855,207.8013,344.2781,337.3147,0.0001591,0.98962779,0.0000,04/09.4780/2020,2000,g 14.5,2.8
# From MPEC 2026-E44
C/2020 F7 (Lemmon),e,93.9962,321.8108,228.0137,597.3451,0.0000675,0.99106592,0.0000,11/14.2278/2021,2000,g  7.0,4.0
# From MPEC 2026-E44
C/2020 F8 (SWAN),e,110.5853,259.8368,68.1666,1991,0.0000111,0.99978172,0.0000,05/25.2282/2020,2000,g 10.0,4.0
# From MPEC 2026-E44
P/2020 G1 (Pimentel),e,18.5057,240.1235,207.6154,3.595521,0.1445644,0.86043846,315.9265,03/15.0/2026,2000,g 17.0,4.0
# From MPEC 2026-E44
C/2020 H2 (Pruyne),e,124.7789,277.6726,26.5751,176.7197,0.0004195,0.99531120,0.0000,04/26.1873/2020,2000,g 14.0,3.2
# From MPEC 2026-E44
C/2020 H4 (Leonard),e,84.2863,307.4026,116.8561,127.0048,0.0006886,0.99259267,0.0000,08/28.6514/2020,2000,g 15.0,3.2
# From MPEC 2026-E44
C/2020 H5 (Robinson),e,70.2098,210.6011,326.2670,7253,0.0000016,0.99871312,0.0000,12/10.1306/2020,2000,g  5.0,4.0
# From MPEC 2026-E44
C/2020 H6 (ATLAS),e,80.0032,213.6676,20.1725,1771,0.0000132,0.99734849,0.0000,09/29.3453/2021,2000,g  8.0,3.2
# From MPEC 2026-E44
C/2020 H8 (PANSTARRS),e,99.6931,68.4220,128.7700,581.5221,0.0000703,0.99198901,0.0000,06/04.9287/2020,2000,g 10.5,4.0
# From MPEC 2026-E44
A/2020 H9,e,137.8713,213.0667,312.5425,330.5333,0.0001640,0.99225560,0.0000,12/21.4177/2019,2000,g 18.0,2.0
# From MPEC 2026-E44
C/2020 H11 (PANSTARRS-Lemmon),e,151.3683,303.0584,91.3471,6166,0.0000020,0.99876392,0.0000,09/11.5016/2020,2000,g  8.5,4.0
# From MPEC 2026-E44
C/2020 J1 (SONEAR),e,142.3103,226.5578,341.5204,4120,0.0000037,0.99918838,0.0000,04/17.5488/2021,2000,g  8.5,3.2
# From MPEC 2026-E43
C/2020 K1 (PANSTARRS),e,89.6707,94.3671,213.9544,1672,0.0000144,0.99816138,0.0000,05/08.3795/2023,2000,g  5.5,4.0
# From MPEC 2026-E44
C/2020 K2 (PANSTARRS),h,08/03.3647/2020,90.9918,288.4428,67.2862,1.000525,8.879635,2000,6.5,4.0
# From MPEC 2026-E44
C/2020 K4 (PANSTARRS),e,125.9369,264.2712,310.2351,45.52878,0.0032083,0.96135365,7.0521,03/15.0/2026,2000,g 16.5,4.0
# From MPEC 2026-E44
C/2020 K5 (PANSTARRS),h,06/03.6106/2021,67.0775,86.1475,249.6438,1.000639,1.542198,2000,11.0,4.0
# From MPEC 2026-E44
C/2020 K6 (Rankin),h,09/13.9903/2021,103.6265,291.6039,44.2436,1.001308,5.864846,2000,8.0,4.0
# From MPEC 2026-E44
C/2020 K7 (PANSTARRS),e,32.0442,286.1344,358.0094,93.69860,0.0010867,0.93188007,2.5358,03/15.0/2026,2000,g  8.0,4.0
# From MPEC 2026-E44
C/2020 K8 (Catalina-ATLAS),h,09/15.8846/2020,31.3102,181.1640,260.3107,1.000357,0.472565,2000,15.0,3.2
# From MPEC 2026-E44
P/2020 K9 (Lemmon-PANSTARRS),e,23.1838,166.2410,197.1296,4.208583,0.1141564,0.31980345,212.2132,03/15.0/2026,2000,g 12.5,4.0
# From MPEC 2026-E44
P/2020 M1 (PANSTARRS),e,8.5351,142.6252,72.4485,5.309699,0.0805562,0.47410570,183.1316,03/15.0/2026,2000,g 14.5,4.0
# From MPEC 2026-E44
C/2020 M3 (ATLAS),e,23.4758,71.1520,328.7422,27.32470,0.0069003,0.95320414,13.5708,03/15.0/2026,2000,g 14.5,4.0
# From MPEC 2026-E44
A/2020 M4,e,160.0938,348.6054,104.4288,5844,0.0000022,0.99898374,0.0000,11/21.9523/2020,2000,g 14.5,2.0
# From MPEC 2026-E44
P/2020 MK4 (PANSTARRS),e,6.7806,0.6536,94.7620,6.226197,0.0634410,0.01569973,333.5166,03/15.0/2026,2000,g  8.0,4.0
# From MPEC 2026-E44
C/2020 M5 (ATLAS),h,08/19.5624/2021,93.1582,351.9826,126.2514,1.000050,3.000979,2000,9.0,4.0
# From MPEC 2026-E44
C/2020 N1 (PANSTARRS),h,03/13.3445/2021,29.7782,279.8536,186.8713,1.000986,1.319269,2000,12.5,4.0
# From MPEC 2026-E44
C/2020 N2 (ATLAS),e,161.0327,257.1872,331.1403,101.6892,0.0009612,0.98249518,0.0000,08/24.3763/2020,2000,g 16.0,3.2
# From MPEC 2026-E44
C/2020 O2 (Amaral),e,71.7662,256.7803,10.1255,5222,0.0000026,0.99907070,0.0000,08/26.8560/2021,2000,g  8.0,3.2
# From MPEC 2026-E44
P/2020 O3 (PANSTARRS),e,8.4447,266.8184,80.8584,4.645828,0.0984259,0.10233765,184.8864,03/15.0/2026,2000,g 12.0,4.0
# From MPEC 2026-E44
C/2020 P1 (NEOWISE),h,10/21.3134/2020,45.0677,53.5046,8.9571,1.000456,0.343179,2000,14.0,3.2
# From MPEC 2026-E44
C/2020 P3 (ATLAS),h,04/23.2272/2021,61.8323,19.4907,82.3754,1.003959,6.818459,2000,6.0,4.0
# From MPEC 2020-QN1
C/2020 P4-B (SOHO),h,08/07.6414/2020,26.8702,171.7670,173.3774,1.000556,0.102326,2000,0.0,6.0
# From MPEC 2020-QN1
C/2020 P4-C (SOHO),h,08/05.3253/2020,37.2536,165.3731,115.8962,1.013252,0.089484,2000,-1.6,6.0
# From MPEC 2026-E44
C/2020 PV6 (PANSTARRS),e,128.1323,329.1167,71.2497,41.43850,0.0036949,0.94471989,6.0288,03/15.0/2026,2000,g 10.0,4.0
# From MPEC 2026-E44
C/2020 Q1 (Borisov),e,142.9017,52.4149,10.0636,62.73867,0.0019834,0.97895942,0.0000,08/15.6165/2020,2000,g 14.0,4.0
# From MPEC 2026-E44
C/2020 Q2 (PANSTARRS),e,3.3365,179.8462,118.1031,10.59030,0.0285984,0.48845647,64.1379,03/15.0/2026,2000,g 12.0,3.2
# From MPEC 2026-E44
C/2020 R2 (PANSTARRS),e,53.2028,195.1465,211.8941,425.1813,0.0001124,0.98894187,0.0000,02/25.1818/2022,2000,g  9.0,4.0
# From MPEC 2026-E44
C/2020 R4 (ATLAS),e,164.3896,323.2175,46.4645,95.99091,0.0010480,0.98937984,0.0000,03/01.8118/2021,2000,g 13.5,4.0
# From MPEC 2026-E44
P/2020 R5 (PANSTARRS),e,11.4394,272.9377,82.7185,4.994620,0.0882979,0.31275841,187.1166,03/15.0/2026,2000,g  9.5,6.0
# From MPEC 2026-E44
C/2020 R6 (Rankin),e,82.9334,12.2715,271.9854,288.4889,0.0002011,0.98911861,0.0000,09/06.6392/2019,2000,g 11.0,4.0
# From MPEC 2026-E44
C/2020 R7 (ATLAS),e,114.9041,268.3051,347.7117,4121,0.0000037,0.99928432,0.0000,09/15.8682/2022,2000,g  7.0,3.2
# From MPEC 2026-E44
P/2020 S1 (PANSTARRS),e,13.7120,129.4173,255.2579,6.003812,0.0669982,0.50640652,126.2234,03/15.0/2026,2000,g 14.0,4.0
# From MPEC 2026-E44
C/2020 S2 (PANSTARRS),e,22.3545,197.6855,202.4845,10.25457,0.0300143,0.82767145,57.3106,03/15.0/2026,2000,g 17.0,4.0
# From MPEC 2026-E44
C/2020 S3 (Erasmus),e,20.1105,222.4510,350.0612,140.2282,0.0005935,0.99721481,0.0000,12/11.4483/2020,2000,g 13.5,3.2
# From MPEC 2026-E44
C/2020 S4 (PANSTARRS),h,02/09.8080/2023,20.5719,117.6748,21.0991,1.003158,3.371735,2000,8.5,3.2
# From MPEC 2026-E44
P/2020 S5 (PANSTARRS),e,12.3367,315.9407,53.3154,4.059766,0.1204904,0.33701294,246.5382,03/15.0/2026,2000,g 14.5,4.0
# From MPEC 2026-E44
